{"type":"FeatureCollection","_meta":{"source":"https://github.com/niclukman/tamp-hackathon-backend/blob/main/data.geojson","filter":"bbox lat 1.335-1.365 / lng 103.935-103.970 (Tampines + Upper Changi/SUTD), HDB_RACKS excluded","count":325,"filtered_at":"2026-05-26"},"features":[{"type":"Feature","geometry":{"type":"Point","coordinates":[103.953763,1.362704]},"properties":{"description":"TAMPINES STREET 45 BLOCK 491A_YB","type":"Yellow Box","count":10,"sheltered":false}},{"type":"Feature","geometry":{"type":"Point","coordinates":[103.962569,1.361313]},"properties":{"description":"AZALEA PARK CONDOMINIUM","type":"Yellow Box","count":16,"sheltered":false}},{"type":"Feature","geometry":{"type":"Point","coordinates":[103.955046,1.361887]},"properties":{"description":"BUS STOP 76279","type":"Yellow Box","count":10,"sheltered":false}},{"type":"Feature","geometry":{"type":"Point","coordinates":[103.959156,1.364663]},"properties":{"description":"BUS STOP 78181","type":"Yellow Box","count":10,"sheltered":false}},{"type":"Feature","geometry":{"type":"Point","coordinates":[103.967341,1.363187]},"properties":{"description":"BUS STOP 97101","type":"Yellow Box","count":11,"sheltered":false}},{"type":"Feature","geometry":{"type":"Point","coordinates":[103.963005,1.36233]},"properties":{"description":"BUS STOP 98011","type":"Yellow Box","count":10,"sheltered":false}},{"type":"Feature","geometry":{"type":"Point","coordinates":[103.963406,1.364108]},"properties":{"description":"BUS STOP 98091","type":"Yellow Box","count":10,"sheltered":false}},{"type":"Feature","geometry":{"type":"Point","coordinates":[103.963476,1.364358]},"properties":{"description":"BUS STOP 98099","type":"Yellow Box","count":10,"sheltered":false}},{"type":"Feature","geometry":{"type":"Point","coordinates":[103.961846,1.361575]},"properties":{"description":"PASIR RIS STREET 13 BLOCK 149_YB","type":"Yellow Box","count":35,"sheltered":false}},{"type":"Feature","geometry":{"type":"Point","coordinates":[103.952371,1.362604]},"properties":{"description":"TAMPINES AVENUE 9 BLOCK 493A_YB","type":"Yellow Box","count":10,"sheltered":true}},{"type":"Feature","geometry":{"type":"Point","coordinates":[103.952545,1.363961]},"properties":{"description":"TAMPINES STREET 43 BLOCK 495E_YB","type":"Yellow Box","count":10,"sheltered":true}},{"type":"Feature","geometry":{"type":"Point","coordinates":[103.954334,1.363718]},"properties":{"description":"TAMPINES STREET 45 BLOCK 491G_YB","type":"Yellow Box","count":15,"sheltered":true}},{"type":"Feature","geometry":{"type":"Point","coordinates":[103.954275,1.362914]},"properties":{"description":"TAMPINES STREET 45 BLOCK 491H_YB","type":"Yellow Box","count":10,"sheltered":true}},{"type":"Feature","geometry":{"type":"Point","coordinates":[103.953884,1.363939]},"properties":{"description":"TAMPINES STREET 45 BLOCK 492D_YB","type":"Yellow Box","count":10,"sheltered":true}},{"type":"Feature","geometry":{"type":"Point","coordinates":[103.954956,1.364263]},"properties":{"description":"TAMPINES STREET 45 BLOCK 492G_YB","type":"Yellow Box","count":10,"sheltered":true}},{"type":"Feature","geometry":{"type":"Point","coordinates":[103.954943,1.363577]},"properties":{"description":"TAMPINES STREET 45 BLOCK 494H_YB","type":"Yellow Box","count":10,"sheltered":true}},{"type":"Feature","geometry":{"type":"Point","coordinates":[103.958257,1.361776]},"properties":{"description":"TAMPINES STREET 45 BLOCK 498A_YB","type":"Yellow Box","count":10,"sheltered":true}},{"type":"Feature","geometry":{"type":"Point","coordinates":[103.95964,1.361173]},"properties":{"description":"TAMPINES STREET 45 BLOCK 498D_YB","type":"Yellow Box","count":15,"sheltered":true}},{"type":"Feature","geometry":{"type":"Point","coordinates":[103.958586,1.361722]},"properties":{"description":"TAMPINES STREET 45 BLOCK 498F_YB","type":"Yellow Box","count":10,"sheltered":true}},{"type":"Feature","geometry":{"type":"Point","coordinates":[103.958344,1.362295]},"properties":{"description":"TAMPINES STREET 45 BLOCK 498G_YB","type":"Yellow Box","count":10,"sheltered":true}},{"type":"Feature","geometry":{"type":"Point","coordinates":[103.957295,1.362865]},"properties":{"description":"TAMPINES STREET 45 BLOCK 498H_YB","type":"Yellow Box","count":10,"sheltered":true}},{"type":"Feature","geometry":{"type":"Point","coordinates":[103.956754,1.363406]},"properties":{"description":"TAMPINES STREET 45 BLOCK 498J_YB","type":"Yellow Box","count":16,"sheltered":true}},{"type":"Feature","geometry":{"type":"Point","coordinates":[103.957952,1.362062]},"properties":{"description":"TAMPINES STREET 45 BLOCK 498M_YB","type":"Yellow Box","count":10,"sheltered":true}},{"type":"Feature","geometry":{"type":"Point","coordinates":[103.957297,1.361959]},"properties":{"description":"BUS STOP 76269","type":"Yellow Box","count":10,"sheltered":false}},{"type":"Feature","geometry":{"type":"Point","coordinates":[103.952622,1.36369]},"properties":{"description":"TAMPINES STREET 45 BLOCK 494C_YB","type":"Yellow Box","count":10,"sheltered":true}},{"type":"Feature","geometry":{"type":"Point","coordinates":[103.94629,1.341864]},"properties":{"description":"SIMEI AVENUE","type":"LTA_YELLOWBOX","count":10,"sheltered":false}},{"type":"Feature","geometry":{"type":"Point","coordinates":[103.938379,1.349593]},"properties":{"description":"TAMPINES AVENUE 4 BLOCK 910_YB","type":"Yellow Box","count":13,"sheltered":true}},{"type":"Feature","geometry":{"type":"Point","coordinates":[103.942411,1.356052]},"properties":{"description":"TAMPINES MRT E2","type":"MRT_RACKS","count":136,"sheltered":false}},{"type":"Feature","geometry":{"type":"Point","coordinates":[103.938319,1.346143]},"properties":{"description":"TAMPINES WEST MRT A4","type":"Yellow Box","count":16,"sheltered":false}},{"type":"Feature","geometry":{"type":"Point","coordinates":[103.944079,1.345733]},"properties":{"description":"TAMPINES STREET 11 BLOCK 139_YB","type":"Yellow Box","count":16,"sheltered":false}},{"type":"Feature","geometry":{"type":"Point","coordinates":[103.952912,1.351981]},"properties":{"description":"TAMPINES STREET 21 BLOCK 209_YB","type":"Yellow Box","count":16,"sheltered":false}},{"type":"Feature","geometry":{"type":"Point","coordinates":[103.94631,1.353043]},"properties":{"description":"TAMPINES STREET 21 BLOCK 245_A_YB","type":"Yellow Box","count":16,"sheltered":false}},{"type":"Feature","geometry":{"type":"Point","coordinates":[103.946547,1.353576]},"properties":{"description":"TAMPINES STREET 21 BLOCK 245_B_YB","type":"Yellow Box","count":16,"sheltered":false}},{"type":"Feature","geometry":{"type":"Point","coordinates":[103.949654,1.349717]},"properties":{"description":"TAMPINES STREET 21 BLOCK 271_YB","type":"Yellow Box","count":16,"sheltered":false}},{"type":"Feature","geometry":{"type":"Point","coordinates":[103.947227,1.357036]},"properties":{"description":"TAMPINES STREET 41 BLOCK 423_YB","type":"Yellow Box","count":10,"sheltered":false}},{"type":"Feature","geometry":{"type":"Point","coordinates":[103.953612,1.360724]},"properties":{"description":"TAMPINES STREET 44 BLOCK 476_YB","type":"Yellow Box","count":16,"sheltered":false}},{"type":"Feature","geometry":{"type":"Point","coordinates":[103.953572,1.361815]},"properties":{"description":"TAMPINES STREET 44 BLOCK 480_YB","type":"Yellow Box","count":16,"sheltered":false}},{"type":"Feature","geometry":{"type":"Point","coordinates":[103.948998,1.338233]},"properties":{"description":"EASTECH (YB 1)","type":"Yellow Box","count":13,"sheltered":false}},{"type":"Feature","geometry":{"type":"Point","coordinates":[103.949212,1.337976]},"properties":{"description":"EASTECH (YB 2)","type":"Yellow Box","count":13,"sheltered":false}},{"type":"Feature","geometry":{"type":"Point","coordinates":[103.945696,1.335326]},"properties":{"description":"EASTLINK (YB 1)","type":"Yellow Box","count":13,"sheltered":false}},{"type":"Feature","geometry":{"type":"Point","coordinates":[103.946045,1.336559]},"properties":{"description":"GOURMET EAST KITCHEN","type":"Yellow Box","count":14,"sheltered":false}},{"type":"Feature","geometry":{"type":"Point","coordinates":[103.947536,1.33729]},"properties":{"description":"SHIMEI EAST KITCHEN (YB 1)","type":"Yellow Box","count":13,"sheltered":false}},{"type":"Feature","geometry":{"type":"Point","coordinates":[103.947334,1.336215]},"properties":{"description":"SHIMEI EAST KITCHEN (YB 2)","type":"Yellow Box","count":13,"sheltered":false}},{"type":"Feature","geometry":{"type":"Point","coordinates":[103.942839,1.339672]},"properties":{"description":"TAMPINES INDUSTRIAL PARK A (BLOCK 31_1)","type":"Yellow Box","count":15,"sheltered":false}},{"type":"Feature","geometry":{"type":"Point","coordinates":[103.943044,1.339881]},"properties":{"description":"TAMPINES INDUSTRIAL PARK A (BLOCK 31_2)","type":"Yellow Box","count":15,"sheltered":false}},{"type":"Feature","geometry":{"type":"Point","coordinates":[103.940933,1.338796]},"properties":{"description":"TAMPINES INDUSTRIAL PARK A (BLOCK 9007)","type":"Yellow Box","count":13,"sheltered":false}},{"type":"Feature","geometry":{"type":"Point","coordinates":[103.942443,1.341748]},"properties":{"description":"TAMPINES INDUSTRIAL PARK A (BLOCK 9008)","type":"Yellow Box","count":15,"sheltered":false}},{"type":"Feature","geometry":{"type":"Point","coordinates":[103.943022,1.340502]},"properties":{"description":"TAMPINES INDUSTRIAL PARK A (BLOCK 9012)","type":"Yellow Box","count":15,"sheltered":false}},{"type":"Feature","geometry":{"type":"Point","coordinates":[103.949447,1.349581]},"properties":{"description":"BUS STOP 64081","type":"Yellow Box","count":10,"sheltered":false}},{"type":"Feature","geometry":{"type":"Point","coordinates":[103.939836,1.344653]},"properties":{"description":"BUS STOP 75059","type":"Yellow Box","count":10,"sheltered":false}},{"type":"Feature","geometry":{"type":"Point","coordinates":[103.936724,1.340633]},"properties":{"description":"BUS STOP 75069","type":"Yellow Box","count":10,"sheltered":false}},{"type":"Feature","geometry":{"type":"Point","coordinates":[103.936621,1.3489]},"properties":{"description":"BUS STOP 75071","type":"Yellow Box","count":10,"sheltered":false}},{"type":"Feature","geometry":{"type":"Point","coordinates":[103.938813,1.355965]},"properties":{"description":"BUS STOP 75121","type":"Yellow Box","count":16,"sheltered":false}},{"type":"Feature","geometry":{"type":"Point","coordinates":[103.939266,1.355674]},"properties":{"description":"BUS STOP 75129","type":"Yellow Box","count":10,"sheltered":false}},{"type":"Feature","geometry":{"type":"Point","coordinates":[103.937332,1.355914]},"properties":{"description":"BUS STOP 75131","type":"Yellow Box","count":10,"sheltered":false}},{"type":"Feature","geometry":{"type":"Point","coordinates":[103.935937,1.355644]},"properties":{"description":"BUS STOP 75139R","type":"Yellow Box","count":10,"sheltered":false}},{"type":"Feature","geometry":{"type":"Point","coordinates":[103.937964,1.358069]},"properties":{"description":"BUS STOP 75261","type":"Yellow Box","count":10,"sheltered":false}},{"type":"Feature","geometry":{"type":"Point","coordinates":[103.938137,1.359045]},"properties":{"description":"BUS STOP 75269","type":"Yellow Box","count":10,"sheltered":false}},{"type":"Feature","geometry":{"type":"Point","coordinates":[103.935883,1.360232]},"properties":{"description":"BUS STOP 75271","type":"Yellow Box","count":10,"sheltered":false}},{"type":"Feature","geometry":{"type":"Point","coordinates":[103.936518,1.360489]},"properties":{"description":"BUS STOP 75279","type":"Yellow Box","count":10,"sheltered":false}},{"type":"Feature","geometry":{"type":"Point","coordinates":[103.941375,1.353123]},"properties":{"description":"BUS STOP 76051","type":"Yellow Box","count":16,"sheltered":false}},{"type":"Feature","geometry":{"type":"Point","coordinates":[103.941613,1.352705]},"properties":{"description":"BUS STOP 76059","type":"Yellow Box","count":10,"sheltered":false}},{"type":"Feature","geometry":{"type":"Point","coordinates":[103.942111,1.348483]},"properties":{"description":"BUS STOP 76069","type":"Yellow Box","count":10,"sheltered":false}},{"type":"Feature","geometry":{"type":"Point","coordinates":[103.945349,1.348129]},"properties":{"description":"BUS STOP 76071","type":"Yellow Box","count":10,"sheltered":false}},{"type":"Feature","geometry":{"type":"Point","coordinates":[103.945689,1.347904]},"properties":{"description":"BUS STOP 76079","type":"Yellow Box","count":13,"sheltered":false}},{"type":"Feature","geometry":{"type":"Point","coordinates":[103.949134,1.349121]},"properties":{"description":"BUS STOP 76089","type":"Yellow Box","count":13,"sheltered":false}},{"type":"Feature","geometry":{"type":"Point","coordinates":[103.952694,1.350701]},"properties":{"description":"BUS STOP 76091","type":"Yellow Box","count":13,"sheltered":false}},{"type":"Feature","geometry":{"type":"Point","coordinates":[103.954873,1.353262]},"properties":{"description":"BUS STOP 76101","type":"Yellow Box","count":16,"sheltered":false}},{"type":"Feature","geometry":{"type":"Point","coordinates":[103.940498,1.351621]},"properties":{"description":"BUS STOP 76111","type":"Yellow Box","count":13,"sheltered":false}},{"type":"Feature","geometry":{"type":"Point","coordinates":[103.940001,1.351868]},"properties":{"description":"BUS STOP 76119","type":"Yellow Box","count":16,"sheltered":false}},{"type":"Feature","geometry":{"type":"Point","coordinates":[103.938192,1.350122]},"properties":{"description":"BUS STOP 76121R","type":"Yellow Box","count":10,"sheltered":false}},{"type":"Feature","geometry":{"type":"Point","coordinates":[103.937908,1.350088]},"properties":{"description":"BUS STOP 76129","type":"Yellow Box","count":10,"sheltered":false}},{"type":"Feature","geometry":{"type":"Point","coordinates":[103.942209,1.351829]},"properties":{"description":"BUS STOP 76131","type":"Yellow Box","count":7,"sheltered":false}},{"type":"Feature","geometry":{"type":"Point","coordinates":[103.943783,1.351561]},"properties":{"description":"BUS STOP 76139","type":"Yellow Box","count":10,"sheltered":false}},{"type":"Feature","geometry":{"type":"Point","coordinates":[103.946394,1.353984]},"properties":{"description":"BUS STOP 76149","type":"Yellow Box","count":10,"sheltered":false}},{"type":"Feature","geometry":{"type":"Point","coordinates":[103.947226,1.355324]},"properties":{"description":"BUS STOP 76151","type":"Yellow Box","count":10,"sheltered":false}},{"type":"Feature","geometry":{"type":"Point","coordinates":[103.947093,1.355197]},"properties":{"description":"BUS STOP 76159","type":"Yellow Box","count":10,"sheltered":false}},{"type":"Feature","geometry":{"type":"Point","coordinates":[103.947578,1.352468]},"properties":{"description":"BUS STOP 76161_R","type":"Yellow Box","count":10,"sheltered":false}},{"type":"Feature","geometry":{"type":"Point","coordinates":[103.950555,1.351808]},"properties":{"description":"BUS STOP 76171","type":"Yellow Box","count":10,"sheltered":false}},{"type":"Feature","geometry":{"type":"Point","coordinates":[103.950575,1.351684]},"properties":{"description":"BUS STOP 76179","type":"Yellow Box","count":10,"sheltered":false}},{"type":"Feature","geometry":{"type":"Point","coordinates":[103.945186,1.356599]},"properties":{"description":"BUS STOP 76199","type":"Yellow Box","count":10,"sheltered":false}},{"type":"Feature","geometry":{"type":"Point","coordinates":[103.947605,1.356854]},"properties":{"description":"BUS STOP 76201","type":"Yellow Box","count":10,"sheltered":false}},{"type":"Feature","geometry":{"type":"Point","coordinates":[103.947332,1.356638]},"properties":{"description":"BUS STOP 76209","type":"Yellow Box","count":10,"sheltered":false}},{"type":"Feature","geometry":{"type":"Point","coordinates":[103.950804,1.356525]},"properties":{"description":"BUS STOP 76219","type":"Yellow Box","count":10,"sheltered":false}},{"type":"Feature","geometry":{"type":"Point","coordinates":[103.953233,1.356177]},"properties":{"description":"BUS STOP 76229","type":"Yellow Box","count":10,"sheltered":false}},{"type":"Feature","geometry":{"type":"Point","coordinates":[103.953559,1.348917]},"properties":{"description":"BUS STOP 76301","type":"Yellow Box","count":10,"sheltered":false}},{"type":"Feature","geometry":{"type":"Point","coordinates":[103.955561,1.357411]},"properties":{"description":"BUS STOP 76319","type":"Yellow Box","count":10,"sheltered":false}},{"type":"Feature","geometry":{"type":"Point","coordinates":[103.946939,1.3455]},"properties":{"description":"BUS STOP 76339","type":"Yellow Box","count":10,"sheltered":false}},{"type":"Feature","geometry":{"type":"Point","coordinates":[103.952835,1.362117]},"properties":{"description":"BUS STOP 76351","type":"Yellow Box","count":10,"sheltered":false}},{"type":"Feature","geometry":{"type":"Point","coordinates":[103.952027,1.361967]},"properties":{"description":"BUS STOP 76359","type":"Yellow Box","count":10,"sheltered":false}},{"type":"Feature","geometry":{"type":"Point","coordinates":[103.950463,1.360399]},"properties":{"description":"BUS STOP 76369","type":"Yellow Box","count":10,"sheltered":false}},{"type":"Feature","geometry":{"type":"Point","coordinates":[103.954288,1.358514]},"properties":{"description":"BUS STOP 76371","type":"Yellow Box","count":10,"sheltered":false}},{"type":"Feature","geometry":{"type":"Point","coordinates":[103.947282,1.358588]},"properties":{"description":"BUS STOP 76399","type":"Yellow Box","count":10,"sheltered":false}},{"type":"Feature","geometry":{"type":"Point","coordinates":[103.95095,1.354912]},"properties":{"description":"BUS STOP 76401","type":"Yellow Box","count":10,"sheltered":false}},{"type":"Feature","geometry":{"type":"Point","coordinates":[103.950833,1.354852]},"properties":{"description":"BUS STOP 76409","type":"Yellow Box","count":10,"sheltered":false}},{"type":"Feature","geometry":{"type":"Point","coordinates":[103.94376,1.355333]},"properties":{"description":"BUS STOP 76551","type":"Yellow Box","count":10,"sheltered":false}},{"type":"Feature","geometry":{"type":"Point","coordinates":[103.944325,1.336561]},"properties":{"description":"BUS STOP 84279","type":"Yellow Box","count":7,"sheltered":false}},{"type":"Feature","geometry":{"type":"Point","coordinates":[103.949918,1.335172]},"properties":{"description":"BUS STOP 84439","type":"Yellow Box","count":10,"sheltered":false}},{"type":"Feature","geometry":{"type":"Point","coordinates":[103.947072,1.337777]},"properties":{"description":"BUS STOP 84591","type":"Yellow Box","count":10,"sheltered":false}},{"type":"Feature","geometry":{"type":"Point","coordinates":[103.94668,1.337672]},"properties":{"description":"BUS STOP 84599","type":"Yellow Box","count":10,"sheltered":false}},{"type":"Feature","geometry":{"type":"Point","coordinates":[103.955281,1.346394]},"properties":{"description":"BUS STOP 96131","type":"Yellow Box","count":10,"sheltered":false}},{"type":"Feature","geometry":{"type":"Point","coordinates":[103.955868,1.346492]},"properties":{"description":"BUS STOP 96139","type":"Yellow Box","count":10,"sheltered":false}},{"type":"Feature","geometry":{"type":"Point","coordinates":[103.95338,1.344786]},"properties":{"description":"BUS STOP 96141","type":"Yellow Box","count":7,"sheltered":false}},{"type":"Feature","geometry":{"type":"Point","coordinates":[103.953244,1.344518]},"properties":{"description":"BUS STOP 96149","type":"Yellow Box","count":8,"sheltered":false}},{"type":"Feature","geometry":{"type":"Point","coordinates":[103.953411,1.341967]},"properties":{"description":"BUS STOP 96161","type":"Yellow Box","count":16,"sheltered":false}},{"type":"Feature","geometry":{"type":"Point","coordinates":[103.953244,1.342163]},"properties":{"description":"BUS STOP 96169","type":"Yellow Box","count":10,"sheltered":false}},{"type":"Feature","geometry":{"type":"Point","coordinates":[103.951294,1.340217]},"properties":{"description":"BUS STOP 96251","type":"Yellow Box","count":7,"sheltered":false}},{"type":"Feature","geometry":{"type":"Point","coordinates":[103.951379,1.34056]},"properties":{"description":"BUS STOP 96259","type":"Yellow Box","count":10,"sheltered":false}},{"type":"Feature","geometry":{"type":"Point","coordinates":[103.948474,1.339391]},"properties":{"description":"BUS STOP 96281","type":"Yellow Box","count":10,"sheltered":false}},{"type":"Feature","geometry":{"type":"Point","coordinates":[103.948152,1.340282]},"properties":{"description":"BUS STOP 96289","type":"Yellow Box","count":10,"sheltered":false}},{"type":"Feature","geometry":{"type":"Point","coordinates":[103.954019,1.356441]},"properties":{"description":"TAMPINES EAST MRT YB_1","type":"Yellow Box","count":12,"sheltered":false}},{"type":"Feature","geometry":{"type":"Point","coordinates":[103.95521,1.355706]},"properties":{"description":"TAMPINES EAST MRT YB_2","type":"Yellow Box","count":18,"sheltered":false}},{"type":"Feature","geometry":{"type":"Point","coordinates":[103.955657,1.355816]},"properties":{"description":"TAMPINES EAST MRT YB_3","type":"Yellow Box","count":10,"sheltered":false}},{"type":"Feature","geometry":{"type":"Point","coordinates":[103.94254,1.355843]},"properties":{"description":"TAMPINES MRT YB_4","type":"Yellow Box","count":13,"sheltered":false}},{"type":"Feature","geometry":{"type":"Point","coordinates":[103.942437,1.356033]},"properties":{"description":"TAMPINES MRT YB_6","type":"Yellow Box","count":10,"sheltered":false}},{"type":"Feature","geometry":{"type":"Point","coordinates":[103.947428,1.345815]},"properties":{"description":"TAMPINES CHANGKAT CC","type":"PA_RACKS","count":5,"sheltered":false}},{"type":"Feature","geometry":{"type":"Point","coordinates":[103.935758,1.345208]},"properties":{"description":"TEMASEK POLY EAST GATE","type":"TEMASEK POLY_RACKS","count":10,"sheltered":false}},{"type":"Feature","geometry":{"type":"Point","coordinates":[103.951095,1.336291]},"properties":{"description":"BUS STOP 96101","type":"Yellow Box","count":23,"sheltered":false}},{"type":"Feature","geometry":{"type":"Point","coordinates":[103.950591,1.337472]},"properties":{"description":"BUS STOP 96109","type":"Yellow Box","count":30,"sheltered":false}},{"type":"Feature","geometry":{"type":"Point","coordinates":[103.953242,1.343659]},"properties":{"description":"SIMEI MRT A1","type":"MRT_RACKS","count":130,"sheltered":false}},{"type":"Feature","geometry":{"type":"Point","coordinates":[103.952911,1.343819]},"properties":{"description":"SIMEI MRT A2","type":"MRT_RACKS","count":22,"sheltered":false}},{"type":"Feature","geometry":{"type":"Point","coordinates":[103.952793,1.343619]},"properties":{"description":"SIMEI MRT A3","type":"MRT_RACKS","count":106,"sheltered":false}},{"type":"Feature","geometry":{"type":"Point","coordinates":[103.953299,1.343013]},"properties":{"description":"SIMEI MRT A4","type":"MRT_RACKS","count":74,"sheltered":false}},{"type":"Feature","geometry":{"type":"Point","coordinates":[103.952859,1.343728]},"properties":{"description":"SIMEI MRT A5","type":"MRT_RACKS","count":38,"sheltered":false}},{"type":"Feature","geometry":{"type":"Point","coordinates":[103.953021,1.343375]},"properties":{"description":"SIMEI MRT A6","type":"MRT_RACKS","count":36,"sheltered":false}},{"type":"Feature","geometry":{"type":"Point","coordinates":[103.941402,1.35706]},"properties":{"description":"TAMPINES CONCOURSE BLOCK 10A","type":"LTA_RACKS","count":40,"sheltered":false}},{"type":"Feature","geometry":{"type":"Point","coordinates":[103.954276,1.356441]},"properties":{"description":"TAMPINES EAST MRT A1","type":"MRT_RACKS","count":134,"sheltered":true}},{"type":"Feature","geometry":{"type":"Point","coordinates":[103.954667,1.356536]},"properties":{"description":"TAMPINES EAST MRT A2","type":"MRT_RACKS","count":96,"sheltered":false}},{"type":"Feature","geometry":{"type":"Point","coordinates":[103.955256,1.355523]},"properties":{"description":"TAMPINES EAST MRT B1","type":"MRT_RACKS","count":90,"sheltered":false}},{"type":"Feature","geometry":{"type":"Point","coordinates":[103.955079,1.355817]},"properties":{"description":"TAMPINES EAST MRT B2","type":"MRT_RACKS","count":80,"sheltered":false}},{"type":"Feature","geometry":{"type":"Point","coordinates":[103.955741,1.355807]},"properties":{"description":"TAMPINES EAST MRT C","type":"MRT_RACKS","count":84,"sheltered":false}},{"type":"Feature","geometry":{"type":"Point","coordinates":[103.955767,1.356667]},"properties":{"description":"TAMPINES EAST MRT D","type":"MRT_RACKS","count":106,"sheltered":false}},{"type":"Feature","geometry":{"type":"Point","coordinates":[103.944719,1.354009]},"properties":{"description":"TAMPINES MRT A","type":"MRT_RACKS","count":36,"sheltered":false}},{"type":"Feature","geometry":{"type":"Point","coordinates":[103.945495,1.353148]},"properties":{"description":"TAMPINES MRT B","type":"MRT_RACKS","count":276,"sheltered":false}},{"type":"Feature","geometry":{"type":"Point","coordinates":[103.944686,1.35359]},"properties":{"description":"TAMPINES MRT C1","type":"MRT_RACKS","count":90,"sheltered":false}},{"type":"Feature","geometry":{"type":"Point","coordinates":[103.945224,1.352965]},"properties":{"description":"TAMPINES MRT C2","type":"MRT_RACKS","count":138,"sheltered":false}},{"type":"Feature","geometry":{"type":"Point","coordinates":[103.945407,1.35276]},"properties":{"description":"TAMPINES MRT C3","type":"MRT_RACKS","count":36,"sheltered":false}},{"type":"Feature","geometry":{"type":"Point","coordinates":[103.94561,1.352713]},"properties":{"description":"TAMPINES MRT C4","type":"MRT_RACKS","count":16,"sheltered":false}},{"type":"Feature","geometry":{"type":"Point","coordinates":[103.942792,1.353765]},"properties":{"description":"TAMPINES MRT F1","type":"MRT_RACKS","count":114,"sheltered":false}},{"type":"Feature","geometry":{"type":"Point","coordinates":[103.942737,1.35382]},"properties":{"description":"TAMPINES MRT F2","type":"MRT_RACKS","count":28,"sheltered":false}},{"type":"Feature","geometry":{"type":"Point","coordinates":[103.942691,1.35387]},"properties":{"description":"TAMPINES MRT F3","type":"MRT_RACKS","count":34,"sheltered":false}},{"type":"Feature","geometry":{"type":"Point","coordinates":[103.943724,1.35493]},"properties":{"description":"TAMPINES MRT YB_1","type":"Yellow Box","count":26,"sheltered":false}},{"type":"Feature","geometry":{"type":"Point","coordinates":[103.942802,1.355694]},"properties":{"description":"TAMPINES MRT YB_2","type":"Yellow Box","count":26,"sheltered":false}},{"type":"Feature","geometry":{"type":"Point","coordinates":[103.942648,1.354471]},"properties":{"description":"TAMPINES MRT YB_3","type":"Yellow Box","count":26,"sheltered":false}},{"type":"Feature","geometry":{"type":"Point","coordinates":[103.942717,1.353902]},"properties":{"description":"TAMPINES MRT YB_5","type":"Yellow Box","count":26,"sheltered":false}},{"type":"Feature","geometry":{"type":"Point","coordinates":[103.938198,1.345488]},"properties":{"description":"TAMPINES WEST MRT A1","type":"MRT_RACKS","count":96,"sheltered":false}},{"type":"Feature","geometry":{"type":"Point","coordinates":[103.938177,1.345554]},"properties":{"description":"TAMPINES WEST MRT A2","type":"MRT_RACKS","count":10,"sheltered":false}},{"type":"Feature","geometry":{"type":"Point","coordinates":[103.93815,1.345637]},"properties":{"description":"TAMPINES WEST MRT A3","type":"MRT_RACKS","count":20,"sheltered":false}},{"type":"Feature","geometry":{"type":"Point","coordinates":[103.938792,1.345049]},"properties":{"description":"TAMPINES WEST MRT B1","type":"MRT_RACKS","count":12,"sheltered":false}},{"type":"Feature","geometry":{"type":"Point","coordinates":[103.938875,1.34505]},"properties":{"description":"TAMPINES WEST MRT B2","type":"MRT_RACKS","count":90,"sheltered":false}},{"type":"Feature","geometry":{"type":"Point","coordinates":[103.938849,1.345025]},"properties":{"description":"TAMPINES WEST MRT B3","type":"MRT_RACKS","count":10,"sheltered":false}},{"type":"Feature","geometry":{"type":"Point","coordinates":[103.944438,1.360523]},"properties":{"description":"TAMPINES ECO GREEN","type":"NPARKS_RACKS","count":14,"sheltered":false}},{"type":"Feature","geometry":{"type":"Point","coordinates":[103.939346,1.353583]},"properties":{"description":"OUR TAMPINES HUB_3","type":"PA_RACKS","count":37,"sheltered":false}},{"type":"Feature","geometry":{"type":"Point","coordinates":[103.939341,1.353727]},"properties":{"description":"OUR TAMPINES HUB_4","type":"PA_RACKS","count":52,"sheltered":false}},{"type":"Feature","geometry":{"type":"Point","coordinates":[103.935551,1.349122]},"properties":{"description":"TAMPINES WEST COMMUNITY CLUB","type":"PA_RACKS","count":40,"sheltered":false}},{"type":"Feature","geometry":{"type":"Point","coordinates":[103.942459,1.356055]},"properties":{"description":"TAMPINES MRT E","type":"MRT_RACKS","count":114,"sheltered":false}},{"type":"Feature","geometry":{"type":"Point","coordinates":[103.943765,1.354937]},"properties":{"description":"TAMPINES MRT D2","type":"MRT_RACKS","count":402,"sheltered":false}},{"type":"Feature","geometry":{"type":"Point","coordinates":[103.935699,1.335952]},"properties":{"description":"BEDOK RESERVOIR VIEW BLOCK 765_YB","type":"Yellow Box","count":11,"sheltered":true}},{"type":"Feature","geometry":{"type":"Point","coordinates":[103.938134,1.336012]},"properties":{"description":"BEDOK RESERVOIR VIEW BLOCK 770_YB","type":"Yellow Box","count":10,"sheltered":true}},{"type":"Feature","geometry":{"type":"Point","coordinates":[103.93807,1.345467]},"properties":{"description":"TAMPINES AVENUE 1 BLOCK 803_YB","type":"Yellow Box","count":16,"sheltered":true}},{"type":"Feature","geometry":{"type":"Point","coordinates":[103.937637,1.345621]},"properties":{"description":"TAMPINES AVENUE 4 BLOCK 804_YB","type":"Yellow Box","count":16,"sheltered":true}},{"type":"Feature","geometry":{"type":"Point","coordinates":[103.939335,1.351314]},"properties":{"description":"TAMPINES AVENUE 4 BLOCK 902_YB","type":"Yellow Box","count":16,"sheltered":true}},{"type":"Feature","geometry":{"type":"Point","coordinates":[103.940517,1.351385]},"properties":{"description":"TAMPINES AVENUE 4 BLOCK 945_YB","type":"Yellow Box","count":16,"sheltered":true}},{"type":"Feature","geometry":{"type":"Point","coordinates":[103.942159,1.349114]},"properties":{"description":"TAMPINES AVENUE 5 BLOCK 147_YB","type":"Yellow Box","count":16,"sheltered":true}},{"type":"Feature","geometry":{"type":"Point","coordinates":[103.95578,1.35533]},"properties":{"description":"TAMPINES AVENUE 7 BLOCK 394_YB","type":"Yellow Box","count":16,"sheltered":true}},{"type":"Feature","geometry":{"type":"Point","coordinates":[103.95588,1.35547]},"properties":{"description":"TAMPINES AVENUE 7 BLOCK 395_YB","type":"Yellow Box","count":16,"sheltered":true}},{"type":"Feature","geometry":{"type":"Point","coordinates":[103.949632,1.361263]},"properties":{"description":"TAMPINES AVENUE 9 BLOCK 496E_YB","type":"Yellow Box","count":10,"sheltered":true}},{"type":"Feature","geometry":{"type":"Point","coordinates":[103.949955,1.360521]},"properties":{"description":"TAMPINES AVENUE 9 BLOCK 496F_YB","type":"Yellow Box","count":16,"sheltered":true}},{"type":"Feature","geometry":{"type":"Point","coordinates":[103.950807,1.361051]},"properties":{"description":"TAMPINES AVENUE 9 BLOCK 496G_YB","type":"Yellow Box","count":10,"sheltered":true}},{"type":"Feature","geometry":{"type":"Point","coordinates":[103.940249,1.357328]},"properties":{"description":"TAMPINES CENTRAL 8 BLOCK 519B_YB","type":"Yellow Box","count":10,"sheltered":true}},{"type":"Feature","geometry":{"type":"Point","coordinates":[103.939686,1.356308]},"properties":{"description":"TAMPINES CENTRAL 8 BLOCK 519D_YB","type":"Yellow Box","count":16,"sheltered":true}},{"type":"Feature","geometry":{"type":"Point","coordinates":[103.945643,1.346678]},"properties":{"description":"TAMPINES STREET 11 BLOCK 102_YB","type":"Yellow Box","count":16,"sheltered":true}},{"type":"Feature","geometry":{"type":"Point","coordinates":[103.946785,1.347235]},"properties":{"description":"TAMPINES STREET 11 BLOCK 104_YB","type":"Yellow Box","count":16,"sheltered":true}},{"type":"Feature","geometry":{"type":"Point","coordinates":[103.9475,1.34812]},"properties":{"description":"TAMPINES STREET 11 BLOCK 105_YB","type":"Yellow Box","count":16,"sheltered":true}},{"type":"Feature","geometry":{"type":"Point","coordinates":[103.948759,1.347386]},"properties":{"description":"TAMPINES STREET 11 BLOCK 109_YB","type":"Yellow Box","count":16,"sheltered":true}},{"type":"Feature","geometry":{"type":"Point","coordinates":[103.949676,1.346937]},"properties":{"description":"TAMPINES STREET 11 BLOCK 110_YB","type":"Yellow Box","count":16,"sheltered":true}},{"type":"Feature","geometry":{"type":"Point","coordinates":[103.947026,1.346596]},"properties":{"description":"TAMPINES STREET 11 BLOCK 111_A_YB","type":"Yellow Box","count":16,"sheltered":true}},{"type":"Feature","geometry":{"type":"Point","coordinates":[103.947807,1.346957]},"properties":{"description":"TAMPINES STREET 11 BLOCK 111_B_YB","type":"Yellow Box","count":16,"sheltered":true}},{"type":"Feature","geometry":{"type":"Point","coordinates":[103.949485,1.34566]},"properties":{"description":"TAMPINES STREET 11 BLOCK 124_A_YB","type":"Yellow Box","count":16,"sheltered":true}},{"type":"Feature","geometry":{"type":"Point","coordinates":[103.949774,1.345174]},"properties":{"description":"TAMPINES STREET 11 BLOCK 124_B_YB","type":"Yellow Box","count":16,"sheltered":true}},{"type":"Feature","geometry":{"type":"Point","coordinates":[103.950477,1.345348]},"properties":{"description":"TAMPINES STREET 11 BLOCK 127_YB","type":"Yellow Box","count":16,"sheltered":true}},{"type":"Feature","geometry":{"type":"Point","coordinates":[103.944855,1.35102]},"properties":{"description":"TAMPINES STREET 12 BLOCK 157_YB","type":"Yellow Box","count":16,"sheltered":true}},{"type":"Feature","geometry":{"type":"Point","coordinates":[103.950647,1.355869]},"properties":{"description":"TAMPINES STREET 21 BLOCK 230B_YB","type":"Yellow Box","count":16,"sheltered":true}},{"type":"Feature","geometry":{"type":"Point","coordinates":[103.947363,1.355562]},"properties":{"description":"TAMPINES STREET 21 BLOCK 237_YB","type":"Yellow Box","count":16,"sheltered":true}},{"type":"Feature","geometry":{"type":"Point","coordinates":[103.947232,1.353398]},"properties":{"description":"TAMPINES STREET 21 BLOCK 246_YB","type":"Yellow Box","count":16,"sheltered":true}},{"type":"Feature","geometry":{"type":"Point","coordinates":[103.947243,1.351993]},"properties":{"description":"TAMPINES STREET 21 BLOCK 248_YB","type":"Yellow Box","count":16,"sheltered":true}},{"type":"Feature","geometry":{"type":"Point","coordinates":[103.950512,1.353724]},"properties":{"description":"TAMPINES STREET 21 BLOCK 262_A_YB","type":"Yellow Box","count":16,"sheltered":true}},{"type":"Feature","geometry":{"type":"Point","coordinates":[103.950617,1.35372]},"properties":{"description":"TAMPINES STREET 21 BLOCK 262_B_YB","type":"Yellow Box","count":16,"sheltered":true}},{"type":"Feature","geometry":{"type":"Point","coordinates":[103.948901,1.349628]},"properties":{"description":"TAMPINES STREET 21 BLOCK 270_YB","type":"Yellow Box","count":16,"sheltered":true}},{"type":"Feature","geometry":{"type":"Point","coordinates":[103.950667,1.347918]},"properties":{"description":"TAMPINES STREET 22 BLOCK 275_YB","type":"Yellow Box","count":16,"sheltered":true}},{"type":"Feature","geometry":{"type":"Point","coordinates":[103.950475,1.347456]},"properties":{"description":"TAMPINES STREET 22 BLOCK 276_YB","type":"Yellow Box","count":16,"sheltered":true}},{"type":"Feature","geometry":{"type":"Point","coordinates":[103.951672,1.346275]},"properties":{"description":"TAMPINES STREET 22 BLOCK 279_YB","type":"Yellow Box","count":16,"sheltered":true}},{"type":"Feature","geometry":{"type":"Point","coordinates":[103.952425,1.347212]},"properties":{"description":"TAMPINES STREET 22 BLOCK 281_A_YB","type":"Yellow Box","count":16,"sheltered":true}},{"type":"Feature","geometry":{"type":"Point","coordinates":[103.952258,1.347312]},"properties":{"description":"TAMPINES STREET 22 BLOCK 281_B_YB","type":"Yellow Box","count":16,"sheltered":true}},{"type":"Feature","geometry":{"type":"Point","coordinates":[103.954686,1.349222]},"properties":{"description":"TAMPINES STREET 22 BLOCK 287_YB","type":"Yellow Box","count":16,"sheltered":true}},{"type":"Feature","geometry":{"type":"Point","coordinates":[103.95459,1.348805]},"properties":{"description":"TAMPINES STREET 22 BLOCK 288_A_YB","type":"Yellow Box","count":16,"sheltered":true}},{"type":"Feature","geometry":{"type":"Point","coordinates":[103.954966,1.34904]},"properties":{"description":"TAMPINES STREET 22 BLOCK 288_B_YB","type":"Yellow Box","count":16,"sheltered":true}},{"type":"Feature","geometry":{"type":"Point","coordinates":[103.955202,1.349995]},"properties":{"description":"TAMPINES STREET 22 BLOCK 291_YB","type":"Yellow Box","count":16,"sheltered":true}},{"type":"Feature","geometry":{"type":"Point","coordinates":[103.955272,1.350818]},"properties":{"description":"TAMPINES STREET 22 BLOCK 295_YB","type":"Yellow Box","count":16,"sheltered":true}},{"type":"Feature","geometry":{"type":"Point","coordinates":[103.9539,1.350166]},"properties":{"description":"TAMPINES STREET 22 BLOCK 299A_YB","type":"Yellow Box","count":16,"sheltered":true}},{"type":"Feature","geometry":{"type":"Point","coordinates":[103.944743,1.357062]},"properties":{"description":"TAMPINES STREET 41 BLOCK 401_A_YB","type":"Yellow Box","count":16,"sheltered":true}},{"type":"Feature","geometry":{"type":"Point","coordinates":[103.945224,1.357142]},"properties":{"description":"TAMPINES STREET 41 BLOCK 401_B_YB","type":"Yellow Box","count":10,"sheltered":true}},{"type":"Feature","geometry":{"type":"Point","coordinates":[103.946172,1.35882]},"properties":{"description":"TAMPINES STREET 41 BLOCK 410_YB","type":"Yellow Box","count":10,"sheltered":true}},{"type":"Feature","geometry":{"type":"Point","coordinates":[103.947687,1.358776]},"properties":{"description":"TAMPINES STREET 41 BLOCK 417_YB","type":"Yellow Box","count":10,"sheltered":true}},{"type":"Feature","geometry":{"type":"Point","coordinates":[103.948184,1.357534]},"properties":{"description":"TAMPINES STREET 41 BLOCK 424_YB","type":"Yellow Box","count":10,"sheltered":true}},{"type":"Feature","geometry":{"type":"Point","coordinates":[103.949626,1.359501]},"properties":{"description":"TAMPINES STREET 41 BLOCK 429_YB","type":"Yellow Box","count":10,"sheltered":true}},{"type":"Feature","geometry":{"type":"Point","coordinates":[103.950102,1.359724]},"properties":{"description":"TAMPINES STREET 41 BLOCK 430_YB","type":"Yellow Box","count":16,"sheltered":true}},{"type":"Feature","geometry":{"type":"Point","coordinates":[103.9509,1.357986]},"properties":{"description":"TAMPINES STREET 42 BLOCK 446_YB","type":"Yellow Box","count":6,"sheltered":true}},{"type":"Feature","geometry":{"type":"Point","coordinates":[103.950817,1.35736]},"properties":{"description":"TAMPINES STREET 42 BLOCK 448_YB","type":"Yellow Box","count":10,"sheltered":true}},{"type":"Feature","geometry":{"type":"Point","coordinates":[103.951605,1.357579]},"properties":{"description":"TAMPINES STREET 42 BLOCK 450_YB","type":"Yellow Box","count":16,"sheltered":true}},{"type":"Feature","geometry":{"type":"Point","coordinates":[103.952217,1.357114]},"properties":{"description":"TAMPINES STREET 42 BLOCK 450C_YB","type":"Yellow Box","count":10,"sheltered":true}},{"type":"Feature","geometry":{"type":"Point","coordinates":[103.952727,1.358392]},"properties":{"description":"TAMPINES STREET 42 BLOCK 450G_YB","type":"Yellow Box","count":10,"sheltered":true}},{"type":"Feature","geometry":{"type":"Point","coordinates":[103.953786,1.356674]},"properties":{"description":"TAMPINES STREET 42 BLOCK 451_YB","type":"Yellow Box","count":10,"sheltered":true}},{"type":"Feature","geometry":{"type":"Point","coordinates":[103.953929,1.357062]},"properties":{"description":"TAMPINES STREET 42 BLOCK 453_YB","type":"Yellow Box","count":10,"sheltered":true}},{"type":"Feature","geometry":{"type":"Point","coordinates":[103.955191,1.357437]},"properties":{"description":"TAMPINES STREET 42 BLOCK 454_YB","type":"Yellow Box","count":10,"sheltered":true}},{"type":"Feature","geometry":{"type":"Point","coordinates":[103.954227,1.357602]},"properties":{"description":"TAMPINES STREET 42 BLOCK 456_YB","type":"Yellow Box","count":16,"sheltered":true}},{"type":"Feature","geometry":{"type":"Point","coordinates":[103.954492,1.358297]},"properties":{"description":"TAMPINES STREET 42 BLOCK 459_YB","type":"Yellow Box","count":10,"sheltered":true}},{"type":"Feature","geometry":{"type":"Point","coordinates":[103.951905,1.359218]},"properties":{"description":"TAMPINES STREET 43 BLOCK 434_YB","type":"Yellow Box","count":10,"sheltered":true}},{"type":"Feature","geometry":{"type":"Point","coordinates":[103.951848,1.359923]},"properties":{"description":"TAMPINES STREET 43 BLOCK 437_YB","type":"Yellow Box","count":10,"sheltered":true}},{"type":"Feature","geometry":{"type":"Point","coordinates":[103.951426,1.360864]},"properties":{"description":"TAMPINES STREET 43 BLOCK 440_YB","type":"Yellow Box","count":16,"sheltered":true}},{"type":"Feature","geometry":{"type":"Point","coordinates":[103.952182,1.359086]},"properties":{"description":"TAMPINES STREET 43 BLOCK 443_YB","type":"Yellow Box","count":16,"sheltered":true}},{"type":"Feature","geometry":{"type":"Point","coordinates":[103.953503,1.361437]},"properties":{"description":"TAMPINES STREET 44 BLOCK 479_YB","type":"Yellow Box","count":16,"sheltered":true}},{"type":"Feature","geometry":{"type":"Point","coordinates":[103.952808,1.361346]},"properties":{"description":"TAMPINES STREET 44 BLOCK 483_YB","type":"Yellow Box","count":16,"sheltered":true}},{"type":"Feature","geometry":{"type":"Point","coordinates":[103.951506,1.362331]},"properties":{"description":"TAMPINES STREET 45 BLOCK 493D_YB","type":"Yellow Box","count":10,"sheltered":true}},{"type":"Feature","geometry":{"type":"Point","coordinates":[103.93658,1.356152]},"properties":{"description":"TAMPINES STREET 71 BLOCK 701","type":"Yellow Box","count":10,"sheltered":true}},{"type":"Feature","geometry":{"type":"Point","coordinates":[103.937758,1.356148]},"properties":{"description":"TAMPINES STREET 71 BLOCK 702_B_YB","type":"Yellow Box","count":16,"sheltered":true}},{"type":"Feature","geometry":{"type":"Point","coordinates":[103.935679,1.358824]},"properties":{"description":"TAMPINES STREET 71 BLOCK 719_YB","type":"Yellow Box","count":16,"sheltered":true}},{"type":"Feature","geometry":{"type":"Point","coordinates":[103.935803,1.360019]},"properties":{"description":"TAMPINES STREET 71 BLOCK 722_YB","type":"Yellow Box","count":16,"sheltered":true}},{"type":"Feature","geometry":{"type":"Point","coordinates":[103.936676,1.352569]},"properties":{"description":"TAMPINES STREET 82 BLOCK 852_YB","type":"Yellow Box","count":13,"sheltered":true}},{"type":"Feature","geometry":{"type":"Point","coordinates":[103.935976,1.354275]},"properties":{"description":"TAMPINES STREET 83 BLOCK 857_YB","type":"Yellow Box","count":16,"sheltered":true}},{"type":"Feature","geometry":{"type":"Point","coordinates":[103.935537,1.355094]},"properties":{"description":"TAMPINES STREET 83 BLOCK 864_YB","type":"Yellow Box","count":6,"sheltered":true}},{"type":"Feature","geometry":{"type":"Point","coordinates":[103.940498,1.348104]},"properties":{"description":"TAMPINES STREET 91 BLOCK 921_YB","type":"Yellow Box","count":16,"sheltered":true}},{"type":"Feature","geometry":{"type":"Point","coordinates":[103.940712,1.347682]},"properties":{"description":"TAMPINES STREET 91 BLOCK 922_YB","type":"Yellow Box","count":16,"sheltered":true}},{"type":"Feature","geometry":{"type":"Point","coordinates":[103.939762,1.345185]},"properties":{"description":"TAMPINES STREET 91 BLOCK 934_YB","type":"Yellow Box","count":15,"sheltered":true}},{"type":"Feature","geometry":{"type":"Point","coordinates":[103.953529,1.343304]},"properties":{"description":"SIMEI MRT_YB1","type":"Yellow Box","count":10,"sheltered":true}},{"type":"Feature","geometry":{"type":"Point","coordinates":[103.944662,1.353895]},"properties":{"description":"TAMPINES MRT YB6","type":"Yellow Box","count":16,"sheltered":true}},{"type":"Feature","geometry":{"type":"Point","coordinates":[103.94015,1.351986]},"properties":{"description":"OUR TAMPINES HUB_1","type":"PA_RACKS","count":33,"sheltered":true}},{"type":"Feature","geometry":{"type":"Point","coordinates":[103.943287,1.340726]},"properties":{"description":"TAMPINES INDUSTRIAL PARK A (BLOCK 9012_2)","type":"JTC_RACKS","count":20,"sheltered":true}},{"type":"Feature","geometry":{"type":"Point","coordinates":[103.945824,1.352246]},"properties":{"description":"TAMPINES MRT C5","type":"MRT_RACKS","count":262,"sheltered":true}},{"type":"Feature","geometry":{"type":"Point","coordinates":[103.945964,1.352403]},"properties":{"description":"TAMPINES MRT C6","type":"MRT_RACKS","count":232,"sheltered":true}},{"type":"Feature","geometry":{"type":"Point","coordinates":[103.93847,1.347532]},"properties":{"description":"BUS STOP 76281","type":"Yellow Box","count":10,"sheltered":false}},{"type":"Feature","geometry":{"type":"Point","coordinates":[103.959381,1.344307]},"properties":{"description":"SIMEI ROAD BLOCK 158_YB","type":"LTA_YELLOWBOX","count":16,"sheltered":true}},{"type":"Feature","geometry":{"type":"Point","coordinates":[103.957937,1.347539]},"properties":{"description":"BUS STOP 96129","type":"Yellow Box","count":33,"sheltered":false}},{"type":"Feature","geometry":{"type":"Point","coordinates":[103.957845,1.3477]},"properties":{"description":"BUS STOP 96129_YB_2","type":"Yellow Box","count":20,"sheltered":false}},{"type":"Feature","geometry":{"type":"Point","coordinates":[103.958166,1.346235]},"properties":{"description":"SIMEI STREET 1_1","type":"Yellow Box","count":20,"sheltered":false}},{"type":"Feature","geometry":{"type":"Point","coordinates":[103.961011,1.340815]},"properties":{"description":"UPPER CHANGI MRT D2","type":"MRT_RACKS","count":14,"sheltered":false}},{"type":"Feature","geometry":{"type":"Point","coordinates":[103.961057,1.340908]},"properties":{"description":"UPPER CHANGI MRT D1","type":"MRT_RACKS","count":10,"sheltered":false}},{"type":"Feature","geometry":{"type":"Point","coordinates":[103.961942,1.335005]},"properties":{"description":"EXPO MRT A","type":"LTA_RACKS","count":24,"sheltered":false}},{"type":"Feature","geometry":{"type":"Point","coordinates":[103.957675,1.356902]},"properties":{"description":"BUS STOP 76231","type":"Yellow Box","count":10,"sheltered":false}},{"type":"Feature","geometry":{"type":"Point","coordinates":[103.957293,1.356352]},"properties":{"description":"BUS STOP 76239","type":"Yellow Box","count":10,"sheltered":false}},{"type":"Feature","geometry":{"type":"Point","coordinates":[103.95839,1.359668]},"properties":{"description":"BUS STOP 76259","type":"Yellow Box","count":10,"sheltered":false}},{"type":"Feature","geometry":{"type":"Point","coordinates":[103.960087,1.353847]},"properties":{"description":"BUS STOP 76421","type":"Yellow Box","count":10,"sheltered":false}},{"type":"Feature","geometry":{"type":"Point","coordinates":[103.95948,1.353724]},"properties":{"description":"BUS STOP 76429","type":"Yellow Box","count":10,"sheltered":false}},{"type":"Feature","geometry":{"type":"Point","coordinates":[103.96256,1.353023]},"properties":{"description":"BUS STOP 76439","type":"Yellow Box","count":13,"sheltered":false}},{"type":"Feature","geometry":{"type":"Point","coordinates":[103.958562,1.352099]},"properties":{"description":"BUS STOP 76459","type":"Yellow Box","count":10,"sheltered":false}},{"type":"Feature","geometry":{"type":"Point","coordinates":[103.960125,1.35585]},"properties":{"description":"BUS STOP 76461","type":"Yellow Box","count":10,"sheltered":false}},{"type":"Feature","geometry":{"type":"Point","coordinates":[103.958373,1.336079]},"properties":{"description":"BUS STOP 96031","type":"Yellow Box","count":10,"sheltered":false}},{"type":"Feature","geometry":{"type":"Point","coordinates":[103.958611,1.335752]},"properties":{"description":"BUS STOP 96039","type":"Yellow Box","count":10,"sheltered":false}},{"type":"Feature","geometry":{"type":"Point","coordinates":[103.962196,1.34346]},"properties":{"description":"BUS STOP 96059","type":"Yellow Box","count":16,"sheltered":false}},{"type":"Feature","geometry":{"type":"Point","coordinates":[103.963157,1.346672]},"properties":{"description":"BUS STOP 96069","type":"Yellow Box","count":10,"sheltered":false}},{"type":"Feature","geometry":{"type":"Point","coordinates":[103.957838,1.346866]},"properties":{"description":"BUS STOP 96121","type":"Yellow Box","count":10,"sheltered":false}},{"type":"Feature","geometry":{"type":"Point","coordinates":[103.955746,1.342374]},"properties":{"description":"BUS STOP 96171","type":"Yellow Box","count":10,"sheltered":false}},{"type":"Feature","geometry":{"type":"Point","coordinates":[103.957743,1.345921]},"properties":{"description":"BUS STOP 96181","type":"Yellow Box","count":10,"sheltered":false}},{"type":"Feature","geometry":{"type":"Point","coordinates":[103.95787,1.345081]},"properties":{"description":"BUS STOP 96189","type":"Yellow Box","count":10,"sheltered":false}},{"type":"Feature","geometry":{"type":"Point","coordinates":[103.955788,1.343994]},"properties":{"description":"BUS STOP 96261","type":"Yellow Box","count":8,"sheltered":false}},{"type":"Feature","geometry":{"type":"Point","coordinates":[103.957815,1.34202]},"properties":{"description":"BUS STOP 96291","type":"Yellow Box","count":10,"sheltered":false}},{"type":"Feature","geometry":{"type":"Point","coordinates":[103.956855,1.341074]},"properties":{"description":"BUS STOP 96299","type":"Yellow Box","count":10,"sheltered":false}},{"type":"Feature","geometry":{"type":"Point","coordinates":[103.965301,1.352879]},"properties":{"description":"BUS STOP 97019","type":"Yellow Box","count":10,"sheltered":false}},{"type":"Feature","geometry":{"type":"Point","coordinates":[103.96852,1.354742]},"properties":{"description":"BUS STOP 97031","type":"Yellow Box","count":16,"sheltered":false}},{"type":"Feature","geometry":{"type":"Point","coordinates":[103.969004,1.35556]},"properties":{"description":"BUS STOP 97039","type":"Yellow Box","count":16,"sheltered":false}},{"type":"Feature","geometry":{"type":"Point","coordinates":[103.96788,1.352382]},"properties":{"description":"BUS STOP 97141","type":"Yellow Box","count":10,"sheltered":false}},{"type":"Feature","geometry":{"type":"Point","coordinates":[103.967803,1.350376]},"properties":{"description":"BUS STOP 97159","type":"Yellow Box","count":10,"sheltered":false}},{"type":"Feature","geometry":{"type":"Point","coordinates":[103.967799,1.346825]},"properties":{"description":"BUS STOP 97161","type":"Yellow Box","count":10,"sheltered":false}},{"type":"Feature","geometry":{"type":"Point","coordinates":[103.967754,1.346594]},"properties":{"description":"BUS STOP 97169","type":"Yellow Box","count":10,"sheltered":false}},{"type":"Feature","geometry":{"type":"Point","coordinates":[103.964714,1.35992]},"properties":{"description":"BUS STOP 98309","type":"Yellow Box","count":16,"sheltered":false}},{"type":"Feature","geometry":{"type":"Point","coordinates":[103.965415,1.359737]},"properties":{"description":"DAHLIA PARK CONDOMINIUM","type":"Yellow Box","count":16,"sheltered":false}},{"type":"Feature","geometry":{"type":"Point","coordinates":[103.964697,1.338905]},"properties":{"description":"ROHDE AND SCHWARZ","type":"Yellow Box","count":10,"sheltered":false}},{"type":"Feature","geometry":{"type":"Point","coordinates":[103.953829,1.335529]},"properties":{"description":"ITE EAST CARPARK","type":"ITE_RACKS","count":36,"sheltered":false}},{"type":"Feature","geometry":{"type":"Point","coordinates":[103.961463,1.340959]},"properties":{"description":"BUS STOP 96049","type":"Yellow Box","count":33,"sheltered":false}},{"type":"Feature","geometry":{"type":"Point","coordinates":[103.95363,1.335459]},"properties":{"description":"BUS STOP 96079","type":"Yellow Box","count":33,"sheltered":false}},{"type":"Feature","geometry":{"type":"Point","coordinates":[103.956012,1.336511]},"properties":{"description":"BUS STOP 96089","type":"Yellow Box","count":30,"sheltered":false}},{"type":"Feature","geometry":{"type":"Point","coordinates":[103.957999,1.336794]},"properties":{"description":"BUS STOP 96091","type":"Yellow Box","count":33,"sheltered":false}},{"type":"Feature","geometry":{"type":"Point","coordinates":[103.957912,1.336598]},"properties":{"description":"BUS STOP 96099","type":"Yellow Box","count":33,"sheltered":false}},{"type":"Feature","geometry":{"type":"Point","coordinates":[103.95782,1.342708]},"properties":{"description":"BUS STOP 96191","type":"Yellow Box","count":28,"sheltered":false}},{"type":"Feature","geometry":{"type":"Point","coordinates":[103.957786,1.343702]},"properties":{"description":"BUS STOP 96199","type":"Yellow Box","count":33,"sheltered":false}},{"type":"Feature","geometry":{"type":"Point","coordinates":[103.959458,1.340388]},"properties":{"description":"BUS STOP 96209","type":"Yellow Box","count":33,"sheltered":false}},{"type":"Feature","geometry":{"type":"Point","coordinates":[103.965783,1.35327]},"properties":{"description":"BUS STOP 97011","type":"Yellow Box","count":23,"sheltered":false}},{"type":"Feature","geometry":{"type":"Point","coordinates":[103.969347,1.357764]},"properties":{"description":"BUS STOP 97041","type":"Yellow Box","count":23,"sheltered":false}},{"type":"Feature","geometry":{"type":"Point","coordinates":[103.962269,1.335823]},"properties":{"description":"EXPO MRT C1","type":"MRT_RACKS","count":56,"sheltered":false}},{"type":"Feature","geometry":{"type":"Point","coordinates":[103.962384,1.335765]},"properties":{"description":"EXPO MRT C2","type":"MRT_RACKS","count":44,"sheltered":false}},{"type":"Feature","geometry":{"type":"Point","coordinates":[103.963369,1.33502]},"properties":{"description":"EXPO MRT D","type":"MRT_RACKS","count":20,"sheltered":false}},{"type":"Feature","geometry":{"type":"Point","coordinates":[103.962207,1.335852]},"properties":{"description":"EXPO MRT YB_1","type":"Yellow Box","count":23,"sheltered":false}},{"type":"Feature","geometry":{"type":"Point","coordinates":[103.961193,1.341865]},"properties":{"description":"UPPER CHANGI MRT A","type":"MRT_RACKS","count":110,"sheltered":false}},{"type":"Feature","geometry":{"type":"Point","coordinates":[103.961694,1.341361]},"properties":{"description":"UPPER CHANGI MRT B","type":"MRT_RACKS","count":140,"sheltered":false}},{"type":"Feature","geometry":{"type":"Point","coordinates":[103.95638,1.360195]},"properties":{"description":"TAMPINES AVENUE 9 BLOCK 488A_YB","type":"Yellow Box","count":10,"sheltered":true}},{"type":"Feature","geometry":{"type":"Point","coordinates":[103.957024,1.360412]},"properties":{"description":"TAMPINES AVENUE 9 BLOCK 488B_YB","type":"Yellow Box","count":10,"sheltered":true}},{"type":"Feature","geometry":{"type":"Point","coordinates":[103.95635,1.352143]},"properties":{"description":"TAMPINES STREET 32 BLOCK 304_YB","type":"Yellow Box","count":16,"sheltered":true}},{"type":"Feature","geometry":{"type":"Point","coordinates":[103.956519,1.352865]},"properties":{"description":"TAMPINES STREET 32 BLOCK 307_YB","type":"Yellow Box","count":16,"sheltered":true}},{"type":"Feature","geometry":{"type":"Point","coordinates":[103.956381,1.351145]},"properties":{"description":"TAMPINES STREET 32 BLOCK 319_YB","type":"Yellow Box","count":16,"sheltered":true}},{"type":"Feature","geometry":{"type":"Point","coordinates":[103.959171,1.354087]},"properties":{"description":"TAMPINES STREET 32 BLOCK 381_YB","type":"Yellow Box","count":16,"sheltered":true}},{"type":"Feature","geometry":{"type":"Point","coordinates":[103.95862,1.355356]},"properties":{"description":"TAMPINES STREET 32 BLOCK 387_A_YB","type":"Yellow Box","count":16,"sheltered":true}},{"type":"Feature","geometry":{"type":"Point","coordinates":[103.958685,1.35517]},"properties":{"description":"TAMPINES STREET 32 BLOCK 387_B_YB","type":"Yellow Box","count":16,"sheltered":true}},{"type":"Feature","geometry":{"type":"Point","coordinates":[103.959027,1.355089]},"properties":{"description":"TAMPINES STREET 32 BLOCK 387_C_YB","type":"Yellow Box","count":16,"sheltered":true}},{"type":"Feature","geometry":{"type":"Point","coordinates":[103.957596,1.35212]},"properties":{"description":"TAMPINES STREET 33 BLOCK 315_YB","type":"Yellow Box","count":16,"sheltered":true}},{"type":"Feature","geometry":{"type":"Point","coordinates":[103.957389,1.350713]},"properties":{"description":"TAMPINES STREET 33 BLOCK 321_YB","type":"Yellow Box","count":16,"sheltered":true}},{"type":"Feature","geometry":{"type":"Point","coordinates":[103.957961,1.351106]},"properties":{"description":"TAMPINES STREET 33 BLOCK 322_YB","type":"Yellow Box","count":16,"sheltered":true}},{"type":"Feature","geometry":{"type":"Point","coordinates":[103.958385,1.351945]},"properties":{"description":"TAMPINES STREET 33 BLOCK 323_YB","type":"Yellow Box","count":16,"sheltered":true}},{"type":"Feature","geometry":{"type":"Point","coordinates":[103.959878,1.351443]},"properties":{"description":"TAMPINES STREET 33 BLOCK 340_YB","type":"Yellow Box","count":16,"sheltered":true}},{"type":"Feature","geometry":{"type":"Point","coordinates":[103.961303,1.351203]},"properties":{"description":"TAMPINES STREET 33 BLOCK 341_YB","type":"Yellow Box","count":16,"sheltered":true}},{"type":"Feature","geometry":{"type":"Point","coordinates":[103.961633,1.351212]},"properties":{"description":"TAMPINES STREET 33 BLOCK 342_YB","type":"Yellow Box","count":16,"sheltered":true}},{"type":"Feature","geometry":{"type":"Point","coordinates":[103.962137,1.351897]},"properties":{"description":"TAMPINES STREET 33 BLOCK 345_YB","type":"Yellow Box","count":16,"sheltered":true}},{"type":"Feature","geometry":{"type":"Point","coordinates":[103.963462,1.353069]},"properties":{"description":"TAMPINES STREET 33 BLOCK 348_YB","type":"Yellow Box","count":16,"sheltered":true}},{"type":"Feature","geometry":{"type":"Point","coordinates":[103.9627,1.353122]},"properties":{"description":"TAMPINES STREET 33 BLOCK 351_YB","type":"Yellow Box","count":16,"sheltered":true}},{"type":"Feature","geometry":{"type":"Point","coordinates":[103.963042,1.354397]},"properties":{"description":"TAMPINES STREET 33 BLOCK 353_YB","type":"Yellow Box","count":16,"sheltered":true}},{"type":"Feature","geometry":{"type":"Point","coordinates":[103.962323,1.355324]},"properties":{"description":"TAMPINES STREET 34 BLOCK 360_YB","type":"Yellow Box","count":16,"sheltered":true}},{"type":"Feature","geometry":{"type":"Point","coordinates":[103.960089,1.357214]},"properties":{"description":"TAMPINES STREET 34 BLOCK 364_YB","type":"Yellow Box","count":16,"sheltered":true}},{"type":"Feature","geometry":{"type":"Point","coordinates":[103.960665,1.357683]},"properties":{"description":"TAMPINES STREET 34 BLOCK 365_YB","type":"Yellow Box","count":16,"sheltered":true}},{"type":"Feature","geometry":{"type":"Point","coordinates":[103.960643,1.359228]},"properties":{"description":"TAMPINES STREET 34 BLOCK 368_A_YB","type":"Yellow Box","count":16,"sheltered":true}},{"type":"Feature","geometry":{"type":"Point","coordinates":[103.961166,1.35888]},"properties":{"description":"TAMPINES STREET 34 BLOCK 368_B_YB","type":"Yellow Box","count":16,"sheltered":true}},{"type":"Feature","geometry":{"type":"Point","coordinates":[103.961449,1.358431]},"properties":{"description":"TAMPINES STREET 34 BLOCK 368_YB","type":"Yellow Box","count":16,"sheltered":true}},{"type":"Feature","geometry":{"type":"Point","coordinates":[103.960139,1.35836]},"properties":{"description":"TAMPINES STREET 34 BLOCK 369_YB","type":"Yellow Box","count":16,"sheltered":true}},{"type":"Feature","geometry":{"type":"Point","coordinates":[103.958454,1.35947]},"properties":{"description":"TAMPINES STREET 45 BLOCK 497A_YB","type":"Yellow Box","count":10,"sheltered":true}},{"type":"Feature","geometry":{"type":"Point","coordinates":[103.959321,1.358942]},"properties":{"description":"TAMPINES STREET 45 BLOCK 497D_YB","type":"Yellow Box","count":16,"sheltered":true}},{"type":"Feature","geometry":{"type":"Point","coordinates":[103.959252,1.35997]},"properties":{"description":"TAMPINES STREET 45 BLOCK 497G_YB","type":"Yellow Box","count":10,"sheltered":true}},{"type":"Feature","geometry":{"type":"Point","coordinates":[103.959198,1.358475]},"properties":{"description":"BUS STOP 76241","type":"Yellow Box","count":10,"sheltered":false}}]}